{
"type": "FeatureCollection",
"name": "kobo_boundary",
"crs": { "type": "name", "properties": { "name": "urn:ogc:def:crs:OGC:1.3:CRS84" } },
"features": [
{ "type": "Feature", "properties": { "adm3_name": "Raya Kobo", "adm3_name1": null, "adm3_name2": null, "adm3_name3": null, "adm3_pcode": "ET030302", "adm2_name": "North Wello", "adm2_name1": null, "adm2_name2": null, "adm2_name3": null, "adm2_pcode": "ET0303", "adm1_name": "Amhara", "adm1_name1": null, "adm1_name2": null, "adm1_name3": null, "adm1_pcode": "ET03", "adm0_name": "Ethiopia", "adm0_name1": null, "adm0_name2": null, "adm0_name3": null, "adm0_pcode": "ET", "valid_on": "2025-01-01T00:00:00", "valid_to": null, "area_sqkm": 1922.3589973799999, "version": "v04", "lang": "en", "lang1": null, "lang2": null, "lang3": null, "adm3_ref_name": " ", "center_lat": null, "center_lon": null, "adm3_alt_name": " " }, "geometry": { "type": "Polygon", "coordinates": [ [ [ 39.857928469000115, 12.020577647000152 ], [ 39.854626692000011, 12.027998990000185 ], [ 39.85410897800017, 12.029162647000078 ], [ 39.852484055000104, 12.032138238000186 ], [ 39.849934983000082, 12.036806149000142 ], [ 39.845946987000161, 12.044027151000023 ], [ 39.841262494000034, 12.053548152000076 ], [ 39.843502548000117, 12.065308125000115 ], [ 39.859786676000112, 12.08333101400018 ], [ 39.861724730000049, 12.088369026000123 ], [ 39.843836053000075, 12.094562965000023 ], [ 39.828600589000189, 12.099837122000054 ], [ 39.819151621000174, 12.123438116000045 ], [ 39.816806661000101, 12.138656100000105 ], [ 39.81282870300015, 12.15664008400006 ], [ 39.810460718000058, 12.164385080000159 ], [ 39.807101721000038, 12.170387082000104 ], [ 39.799860768000144, 12.194985067000061 ], [ 39.802676841, 12.210930031999965 ], [ 39.803625913000189, 12.229686998000147 ], [ 39.807546950000187, 12.238868944999979 ], [ 39.811287564000054, 12.239165669000045 ], [ 39.827579057000037, 12.240457884000136 ], [ 39.825724327000046, 12.25551117200007 ], [ 39.82561113100013, 12.256429878 ], [ 39.825327182000137, 12.27099885500013 ], [ 39.824330216000078, 12.282227840000076 ], [ 39.82365524700009, 12.291624827000021 ], [ 39.824736882000138, 12.317740811000078 ], [ 39.819009658000027, 12.32279563600008 ], [ 39.817611330000148, 12.324029795000172 ], [ 39.814819853000188, 12.322795672000098 ], [ 39.800328207, 12.316388865000135 ], [ 39.797960075, 12.315826746000084 ], [ 39.777141025000162, 12.310884940000108 ], [ 39.761546943000042, 12.303252023000141 ], [ 39.759770617000186, 12.31316337700008 ], [ 39.75855376100003, 12.319953055000155 ], [ 39.747958155000163, 12.316504210000176 ], [ 39.739107259000036, 12.312837382 ], [ 39.726552616000163, 12.310214417000168 ], [ 39.721837589000017, 12.308360359000062 ], [ 39.721501852000074, 12.308228335000138 ], [ 39.706265144000042, 12.306206621000172 ], [ 39.688472934000174, 12.306920248000154 ], [ 39.679314630000192, 12.307815882 ], [ 39.665044343000147, 12.307619434000117 ], [ 39.658701245000032, 12.306381335000083 ], [ 39.649767456000063, 12.306892253000058 ], [ 39.640944240000124, 12.307630959999983 ], [ 39.632274431000155, 12.307654083000045 ], [ 39.626799919000177, 12.304066020999983 ], [ 39.624734308000029, 12.302712201000077 ], [ 39.620934418000047, 12.300221699000076 ], [ 39.625122954000062, 12.287998835 ], [ 39.620121663000077, 12.282375198000011 ], [ 39.614212959000042, 12.275731232999988 ], [ 39.605000344000075, 12.270562435999977 ], [ 39.596962525000038, 12.269870311000034 ], [ 39.591869765000183, 12.270975589000159 ], [ 39.586632102000124, 12.26586758000019 ], [ 39.572543903000053, 12.255925598000033 ], [ 39.555184250000138, 12.255511219000141 ], [ 39.543273525000075, 12.265007941000022 ], [ 39.541339866000044, 12.277529949000154 ], [ 39.53853635500019, 12.291911820000053 ], [ 39.535312121, 12.299931815000036 ], [ 39.531191943000181, 12.306057927000154 ], [ 39.529284754, 12.312295538000114 ], [ 39.524359294000192, 12.32279563600008 ], [ 39.522661952000078, 12.326414029000091 ], [ 39.515158812999971, 12.329360518000044 ], [ 39.507440992000113, 12.332852040000091 ], [ 39.501024754000184, 12.33171214500004 ], [ 39.487157847000105, 12.326714120000133 ], [ 39.474891385000149, 12.322795672000098 ], [ 39.47051795200008, 12.32139860500007 ], [ 39.464760572000102, 12.32279563600008 ], [ 39.455564056000185, 12.325027175000059 ], [ 39.452092918000062, 12.322795672000098 ], [ 39.440743658000144, 12.315499537999983 ], [ 39.427574716000152, 12.302440960000069 ], [ 39.419514241000172, 12.296596725000143 ], [ 39.402885922000053, 12.295279038000103 ], [ 39.388595784000188, 12.300496204000126 ], [ 39.374684210000055, 12.301190213000098 ], [ 39.374876811999968, 12.300560584000095 ], [ 39.375446486000044, 12.298249776000034 ], [ 39.375465089000102, 12.297401492000063 ], [ 39.375471978, 12.297087359000045 ], [ 39.375480444, 12.2967013 ], [ 39.375490270000114, 12.296253188000037 ], [ 39.375652742000057, 12.295683780000047 ], [ 39.375866710000025, 12.294933898000124 ], [ 39.376013989, 12.294417730000077 ], [ 39.375701154000183, 12.293550328000094 ], [ 39.375542843000119, 12.29311137500008 ], [ 39.37537998300013, 12.292659805000028 ], [ 39.37495794400013, 12.291489592000119 ], [ 39.372768311000073, 12.288337216000059 ], [ 39.371448604000193, 12.286930455000061 ], [ 39.370815468000046, 12.284846650000077 ], [ 39.370525225999984, 12.282142616000158 ], [ 39.36891894900009, 12.280623544000036 ], [ 39.368573166000147, 12.279159111000126 ], [ 39.369659410000111, 12.277523722000069 ], [ 39.370745798000144, 12.276001013000098 ], [ 39.370906452000099, 12.274506969000129 ], [ 39.368822192000152, 12.272848441000065 ], [ 39.367846788000065, 12.271779249000019 ], [ 39.36549544900015, 12.269979441000146 ], [ 39.364118276000113, 12.268347346000041 ], [ 39.363370517000192, 12.266150987000117 ], [ 39.362832081000192, 12.264719582000055 ], [ 39.361760616000083, 12.261871096000107 ], [ 39.362215682000112, 12.259504116000187 ], [ 39.362841135000053, 12.256066403999966 ], [ 39.363633782000193, 12.255617177000033 ], [ 39.364363086000139, 12.255233377000081 ], [ 39.36626130000019, 12.255709391000039 ], [ 39.367468052, 12.255576124000072 ], [ 39.368626759000051, 12.25588966700019 ], [ 39.369779035000192, 12.256917111000121 ], [ 39.370204078000086, 12.257296103000044 ], [ 39.370566980000092, 12.257741003999968 ], [ 39.370939699000132, 12.258197938000137 ], [ 39.37122766400006, 12.25855096600003 ], [ 39.371581307000099, 12.258984511000108 ], [ 39.371789502000183, 12.258796291000181 ], [ 39.372267874000158, 12.258363815000109 ], [ 39.37301117200019, 12.257968867000102 ], [ 39.373756203000084, 12.257572999000047 ], [ 39.375359414000116, 12.257007387000101 ], [ 39.376121853000086, 12.257006343000057 ], [ 39.377536276000114, 12.257004402000121 ], [ 39.37845164600003, 12.256158006000078 ], [ 39.379070218000038, 12.255842341000175 ], [ 39.379835770000113, 12.25545167000007 ], [ 39.38134296100003, 12.256317840000179 ], [ 39.382660115000135, 12.25707478400011 ], [ 39.383488362000037, 12.257839291000039 ], [ 39.383710388999987, 12.257396119000134 ], [ 39.383765901000174, 12.257285314000114 ], [ 39.383815873, 12.257185568000011 ], [ 39.384082745000057, 12.256652877000079 ], [ 39.384224631999984, 12.256369662 ], [ 39.384358704000078, 12.256102047000184 ], [ 39.384579959000177, 12.255660406000118 ], [ 39.386378111000113, 12.254222260000176 ], [ 39.386669859999984, 12.253745775000084 ], [ 39.386883591000185, 12.253396706000046 ], [ 39.387141180000071, 12.252976006999972 ], [ 39.387320978000048, 12.252682358000129 ], [ 39.387785748000113, 12.251923281000074 ], [ 39.389623153, 12.250855273000184 ], [ 39.391334492000112, 12.249860523000109 ], [ 39.391669636000131, 12.249452121000104 ], [ 39.392160127000125, 12.248854411000025 ], [ 39.392376943000158, 12.248094112000103 ], [ 39.39269256100016, 12.246987343000058 ], [ 39.392885477000107, 12.245838571000093 ], [ 39.393418396000072, 12.244306480000034 ], [ 39.393602281000085, 12.243589281000141 ], [ 39.393750990000058, 12.243009271000119 ], [ 39.394275074000063, 12.242867255000078 ], [ 39.395775324000056, 12.242460715 ], [ 39.397106814000097, 12.24160671900006 ], [ 39.399424953000107, 12.241591996000182 ], [ 39.401371192000113, 12.240687684000136 ], [ 39.402659884000172, 12.23923893000017 ], [ 39.40383013100012, 12.237923313000124 ], [ 39.404557569000076, 12.236971892000156 ], [ 39.405805654000062, 12.235339493000026 ], [ 39.406273036000186, 12.235075879000021 ], [ 39.406660125000144, 12.233687541000108 ], [ 39.407943080000166, 12.233662271000128 ], [ 39.40840598200009, 12.233653151000112 ], [ 39.409287206000158, 12.233635789000061 ], [ 39.410433899000111, 12.233397292000177 ], [ 39.41094285600019, 12.233291433000034 ], [ 39.411310766000099, 12.233214912000165 ], [ 39.411428106000187, 12.233190505000039 ], [ 39.411887971000112, 12.23309485599998 ], [ 39.412093712, 12.232679036000036 ], [ 39.412260997000089, 12.232340940000142 ], [ 39.412403343000165, 12.232053245000088 ], [ 39.412481736000132, 12.231894804000035 ], [ 39.412640932000159, 12.231573054000023 ], [ 39.412129396000125, 12.231119209000042 ], [ 39.409597948000112, 12.230070204000015 ], [ 39.408624794000048, 12.229975944000046 ], [ 39.407748941000136, 12.22988153600005 ], [ 39.406532171000038, 12.229548359000091 ], [ 39.405511172, 12.229980553000189 ], [ 39.404294186000016, 12.229503805000149 ], [ 39.403417321000063, 12.22873942800004 ], [ 39.402102465000155, 12.227879981000115 ], [ 39.40132384900005, 12.227737557000012 ], [ 39.400740410000139, 12.227977677000183 ], [ 39.399767553000061, 12.228074802000151 ], [ 39.39835770500008, 12.228746803000035 ], [ 39.396898343000146, 12.228844622000054 ], [ 39.396865707000131, 12.228752644999986 ], [ 39.396092231000068, 12.226572716000021 ], [ 39.394773931000032, 12.223368388000097 ], [ 39.393813559000193, 12.223795931000041 ], [ 39.393290030000117, 12.223282455000174 ], [ 39.393058262000125, 12.223055137000017 ], [ 39.392092712000135, 12.222108118000108 ], [ 39.391450294000094, 12.221255749000022 ], [ 39.391117078000093, 12.220813633000034 ], [ 39.390809618000048, 12.218740984000021 ], [ 39.390741052000067, 12.218278760000146 ], [ 39.390818584000101, 12.217471147000026 ], [ 39.390960659000029, 12.215991203000158 ], [ 39.391044648000104, 12.215116316000149 ], [ 39.391079366000156, 12.214754669000172 ], [ 39.391135954000049, 12.214165205000086 ], [ 39.39132273700011, 12.213001863000102 ], [ 39.391558025000052, 12.211536412000044 ], [ 39.391760279000096, 12.210276692000093 ], [ 39.391891579000117, 12.209527607000041 ], [ 39.391987476000168, 12.208980494000173 ], [ 39.393221735000054, 12.209995385000184 ], [ 39.396481638000012, 12.210373544000106 ], [ 39.399691178000012, 12.20960323800017 ], [ 39.401094301000057, 12.208296051000104 ], [ 39.402087869000184, 12.207878046000076 ], [ 39.402752592000184, 12.207397491 ], [ 39.402848510000126, 12.206488122000167 ], [ 39.401680138000131, 12.205915579000134 ], [ 39.4004619050001, 12.20452958300001 ], [ 39.399245117000135, 12.204100661999973 ], [ 39.398320420000118, 12.203814875000035 ], [ 39.396419542000046, 12.201329199999975 ], [ 39.394691470000055, 12.200542087000144 ], [ 39.392646758000183, 12.199444362000179 ], [ 39.391623600000059, 12.198345170000039 ], [ 39.391476051000041, 12.197244734000094 ], [ 39.392510696000102, 12.196903820000102 ], [ 39.392799628000034, 12.196527661000175 ], [ 39.393257229000142, 12.196132611000166 ], [ 39.395257586000184, 12.196333547000108 ], [ 39.395846170000027, 12.196392667 ], [ 39.396408271000098, 12.196449126000175 ], [ 39.397229418999984, 12.19653160200005 ], [ 39.397619126000166, 12.196570743 ], [ 39.398042121000117, 12.196613227000171 ], [ 39.400523124000131, 12.19670534200003 ], [ 39.402469545000145, 12.197133196000095 ], [ 39.403923604000113, 12.196760463000089 ], [ 39.405342174000054, 12.196396821000178 ], [ 39.406447201999981, 12.196244178000086 ], [ 39.40740355700018, 12.196112071000073 ], [ 39.409232511000141, 12.195892171000025 ], [ 39.409924127000181, 12.195809014000133 ], [ 39.410086581000144, 12.195789480000144 ], [ 39.410724756000093, 12.195712747000073 ], [ 39.41076039100011, 12.195668204000015 ], [ 39.411582192000139, 12.19464096300004 ], [ 39.4123468250001, 12.193940345000158 ], [ 39.413124616000061, 12.192103251000049 ], [ 39.414838386000099, 12.189283562000071 ], [ 39.415865667000105, 12.186971979000191 ], [ 39.415406363000102, 12.186240221000048 ], [ 39.414288098000043, 12.186991812000144 ], [ 39.412487402000068, 12.187427789000083 ], [ 39.410884951000128, 12.188162632000058 ], [ 39.408711420000145, 12.189968817000022 ], [ 39.407737294000185, 12.189632204000134 ], [ 39.405360626000174, 12.18969204900003 ], [ 39.404042366000169, 12.189017874000115 ], [ 39.403161046000093, 12.187968115 ], [ 39.402721530000122, 12.186820257000079 ], [ 39.401790267000081, 12.182131904000016 ], [ 39.402293115000134, 12.181682979000072 ], [ 39.402810371000101, 12.181221188000166 ], [ 39.403343621000147, 12.180024054000057 ], [ 39.403302388000043, 12.179926434000151 ], [ 39.40275783300018, 12.178637138000056 ], [ 39.40235712100008, 12.176663826000038 ], [ 39.401330396000105, 12.175555986 ], [ 39.400246838000157, 12.174644962000173 ], [ 39.399970513000142, 12.174260033 ], [ 39.39874624600003, 12.172554581000099 ], [ 39.398251708000146, 12.171701729000063 ], [ 39.398142990000167, 12.171514239000032 ], [ 39.398061616, 12.171373906000042 ], [ 39.397975371000086, 12.17122517100006 ], [ 39.397756271000048, 12.170847323000089 ], [ 39.397390235000159, 12.170216074000166 ], [ 39.397585641000148, 12.170034945 ], [ 39.397715333000065, 12.169914728000094 ], [ 39.397910738000178, 12.169733599000097 ], [ 39.398067352000169, 12.169588426000075 ], [ 39.398371766000082, 12.169306251000137 ], [ 39.400259633000076, 12.168007645000159 ], [ 39.400384861000134, 12.167440408000175 ], [ 39.400657798000054, 12.166204107000112 ], [ 39.401688166000042, 12.165920898000024 ], [ 39.403979575000051, 12.166424641000049 ], [ 39.405008652000163, 12.16678855400005 ], [ 39.406042270000057, 12.167154070000095 ], [ 39.407703422000054, 12.167433337000034 ], [ 39.409019688000058, 12.166867966000098 ], [ 39.409787664000191, 12.165891625000029 ], [ 39.412391795000076, 12.162580928000125 ], [ 39.413421265000181, 12.161734253000134 ], [ 39.413915868000174, 12.161128695000116 ], [ 39.415678949000096, 12.158970087000057 ], [ 39.416096286000084, 12.158581745000049 ], [ 39.416430021000053, 12.158271195000111 ], [ 39.416521162000038, 12.158186385000022 ], [ 39.416669006000063, 12.158048813 ], [ 39.417116832000147, 12.157632098000079 ], [ 39.417277395000042, 12.157482690000165 ], [ 39.417327219000072, 12.157436328000074 ], [ 39.417680305000147, 12.157107770000039 ], [ 39.417658323000069, 12.157064677000108 ], [ 39.417446308000024, 12.156649068000092 ], [ 39.41720470600012, 12.156175459999986 ], [ 39.417606324000133, 12.155788643000051 ], [ 39.415653797000175, 12.151245433000042 ], [ 39.414833312000042, 12.149893186000156 ], [ 39.412216237000109, 12.145579847000022 ], [ 39.410995441000182, 12.143087004000108 ], [ 39.409874442000046, 12.140797897000141 ], [ 39.409141717000125, 12.138693391000118 ], [ 39.409163733000128, 12.137185947999967 ], [ 39.408710047000113, 12.135798068000099 ], [ 39.40799107100014, 12.133598603999985 ], [ 39.407064434000119, 12.131877211000131 ], [ 39.406675467000127, 12.130924479000157 ], [ 39.406185789000119, 12.129725055000051 ], [ 39.406376312000191, 12.129547529000092 ], [ 39.407015024000088, 12.128952384000172 ], [ 39.410734303000083, 12.12731296000004 ], [ 39.412260461000074, 12.12689267899998 ], [ 39.414570748000131, 12.127419933999988 ], [ 39.415544915, 12.127925558000072 ], [ 39.416194424000025, 12.127887530000123 ], [ 39.417520137000054, 12.127809904000117 ], [ 39.419387453000184, 12.12699805200009 ], [ 39.420381087000123, 12.126566044000072 ], [ 39.423529718000168, 12.126223196000126 ], [ 39.425991163000162, 12.12582502600003 ], [ 39.427767578000157, 12.126723771000059 ], [ 39.428336278000131, 12.126602935000165 ], [ 39.429370248000055, 12.126383238000017 ], [ 39.434064355000032, 12.125756159000105 ], [ 39.436297755000112, 12.125978023000187 ], [ 39.436597200000108, 12.124821611000073 ], [ 39.435816929000111, 12.123482921000118 ], [ 39.436249707, 12.120467425000015 ], [ 39.436872570000162, 12.119615896000028 ], [ 39.437511286000074, 12.118742686000076 ], [ 39.438662518000115, 12.11898782600008 ], [ 39.439463362000083, 12.118535819000101 ], [ 39.440952103000086, 12.118589798000187 ], [ 39.442381546000149, 12.117404331000046 ], [ 39.444498691999968, 12.116612152000187 ], [ 39.446959823000157, 12.116101117000085 ], [ 39.449022044000174, 12.116717552000182 ], [ 39.450854778000064, 12.117052634 ], [ 39.451398347, 12.117334686000106 ], [ 39.451828971000111, 12.117558130000077 ], [ 39.451708264, 12.117338407000148 ], [ 39.451781131000075, 12.116925279000043 ], [ 39.451487424000049, 12.115777257000104 ], [ 39.450318796000147, 12.114869928000076 ], [ 39.449989058000028, 12.11457238800017 ], [ 39.449101229000064, 12.113771256000121 ], [ 39.448030595000091, 12.113294445000179 ], [ 39.446182062000162, 12.112914591000049 ], [ 39.444965867000178, 12.112629418000154 ], [ 39.442338654000139, 12.111867952000011 ], [ 39.440198993000138, 12.111871354000129 ], [ 39.437767171000189, 12.111635930000034 ], [ 39.435627201000045, 12.111447881000174 ], [ 39.433365427000126, 12.111120643999982 ], [ 39.43202783800001, 12.110927110000148 ], [ 39.431539786000144, 12.109827220999989 ], [ 39.431404168000142, 12.108416904000137 ], [ 39.431352908000122, 12.107883838000078 ], [ 39.431363323000028, 12.107351525000183 ], [ 39.431372416000158, 12.106886792000182 ], [ 39.43137415700005, 12.106797785000026 ], [ 39.431376908000175, 12.10665718700011 ], [ 39.431387910000183, 12.106094823000092 ], [ 39.430907884000078, 12.104818825000052 ], [ 39.430704210000101, 12.104277421000177 ], [ 39.430158927000036, 12.103367015000174 ], [ 39.429802196000082, 12.102771408000024 ], [ 39.429662145000123, 12.102042671000049 ], [ 39.429507987000193, 12.101240526000026 ], [ 39.429573060000109, 12.100639326000021 ], [ 39.429699666000147, 12.099469619000104 ], [ 39.429735233000144, 12.098919605999981 ], [ 39.429842029000099, 12.097268099000019 ], [ 39.429840958999989, 12.096598141000015 ], [ 39.429595897000183, 12.096181623 ], [ 39.429109586000152, 12.095355059000042 ], [ 39.429117628000085, 12.095166169000038 ], [ 39.429448835000073, 12.094774119000078 ], [ 39.429476274000137, 12.094741639000063 ], [ 39.429566589000046, 12.094634732000031 ], [ 39.42957577400017, 12.094623862 ], [ 39.429591782999978, 12.094604911000147 ], [ 39.429607652000129, 12.094586126000081 ], [ 39.429616417000091, 12.094575751000036 ], [ 39.429948513, 12.094182646000093 ], [ 39.43023414400011, 12.09375955500019 ], [ 39.430979212000125, 12.094265484 ], [ 39.432469629000082, 12.095446363000121 ], [ 39.434474500000135, 12.096119346000137 ], [ 39.435679051000079, 12.097526025000036 ], [ 39.437228039000161, 12.099495581000156 ], [ 39.437914142000182, 12.098931075000166 ], [ 39.437486853000053, 12.096582810000086 ], [ 39.437278698000171, 12.095438836000142 ], [ 39.437306708000165, 12.094150032000073 ], [ 39.437314360000073, 12.093797949000134 ], [ 39.437324078000188, 12.093350831000123 ], [ 39.43733815000013, 12.092703342000107 ], [ 39.437358716000062, 12.091757010000151 ], [ 39.437538628000027, 12.0913575780001 ], [ 39.437385234000089, 12.090536864000057 ], [ 39.437295497000036, 12.090148104000036 ], [ 39.437165266000193, 12.089583913000183 ], [ 39.436976786000059, 12.088767368000049 ], [ 39.436722201000066, 12.087664434000089 ], [ 39.437412421000147, 12.086940375000097 ], [ 39.437636631000032, 12.086705172000109 ], [ 39.438953356000184, 12.086703097000054 ], [ 39.44061246900003, 12.08602436100017 ], [ 39.44158311200016, 12.084445229000096 ], [ 39.442378298000051, 12.080612669000061 ], [ 39.443235066000057, 12.079428111000084 ], [ 39.444376948000013, 12.077566983000111 ], [ 39.444595861000096, 12.07733881900009 ], [ 39.444809868000164, 12.07711576600019 ], [ 39.444866992000073, 12.07705622800006 ], [ 39.445015681000029, 12.076901255000109 ], [ 39.445213273000036, 12.07672116700013 ], [ 39.445351497000104, 12.076551244000029 ], [ 39.44540562300017, 12.076494830000115 ], [ 39.445392615000117, 12.076430689000063 ], [ 39.444829925000136, 12.074513721000073 ], [ 39.444816807000109, 12.074121028000036 ], [ 39.444810508000046, 12.07393243000007 ], [ 39.444805848000158, 12.073792927000113 ], [ 39.444778777000181, 12.072982465000052 ], [ 39.445843467000145, 12.069965939000042 ], [ 39.445923401000186, 12.068673370000113 ], [ 39.447005613000044, 12.067092814999967 ], [ 39.448528765000106, 12.065733358000045 ], [ 39.449530132000064, 12.064839598000162 ], [ 39.450645996000048, 12.063402165000184 ], [ 39.453291636000074, 12.060933375000161 ], [ 39.453902631000119, 12.060623457000133 ], [ 39.454517994000128, 12.060311322000132 ], [ 39.454966785000067, 12.060083677000023 ], [ 39.455352919, 12.059265407 ], [ 39.455518169000186, 12.058915220000074 ], [ 39.455770454, 12.058380591000173 ], [ 39.455993743000136, 12.057907405000094 ], [ 39.456106222000074, 12.057770398000059 ], [ 39.459561087000054, 12.059487476000186 ], [ 39.461071311000126, 12.060145140000031 ], [ 39.461312681000038, 12.060250250000024 ], [ 39.462207990000138, 12.060536353000032 ], [ 39.462520804000064, 12.060636314000021 ], [ 39.46288921900009, 12.060754043000088 ], [ 39.463028227000052, 12.060798464000129 ], [ 39.463696336000169, 12.061011961000077 ], [ 39.466032045000077, 12.062156566000056 ], [ 39.468172133000053, 12.062631518999979 ], [ 39.470748385000036, 12.06229219800008 ], [ 39.476413862000129, 12.063024306000045 ], [ 39.480207211000163, 12.063592042000153 ], [ 39.48380506400008, 12.063585817000103 ], [ 39.485687509000115, 12.063870675000032 ], [ 39.485993550000103, 12.063916985000105 ], [ 39.488863584000114, 12.064725482000142 ], [ 39.491395037000188, 12.066491627000175 ], [ 39.492830860000083, 12.067326536000053 ], [ 39.492972486000042, 12.06739244 ], [ 39.494777337000073, 12.068232311000145 ], [ 39.495362012000044, 12.068901228000129 ], [ 39.496675647000131, 12.069377428000109 ], [ 39.499353322000104, 12.071286797000084 ], [ 39.501201361000142, 12.071522746000142 ], [ 39.505189082000129, 12.071946224000044 ], [ 39.506502028000057, 12.072039546000099 ], [ 39.507668932000115, 12.072037420000129 ], [ 39.511901408000028, 12.073321724000152 ], [ 39.51469717000009, 12.073340494000092 ], [ 39.516487581000149, 12.072826802000066 ], [ 39.518393021000065, 12.073668613000166 ], [ 39.519755890000113, 12.07443173300004 ], [ 39.52058430000011, 12.07538726100006 ], [ 39.52262223300005, 12.076464796000153 ], [ 39.523650613000086, 12.077008537000097 ], [ 39.525411237000071, 12.077332046000151 ], [ 39.526228500000116, 12.077482211000017 ], [ 39.527783742000167, 12.077144290000035 ], [ 39.530848136000088, 12.077760559000126 ], [ 39.532112209000104, 12.07771028999997 ], [ 39.533205016000011, 12.077110027000174 ], [ 39.533237628000052, 12.076622089000125 ], [ 39.533780204000038, 12.076496535 ], [ 39.533575068000118, 12.076036428000066 ], [ 39.533315658000106, 12.075454586000035 ], [ 39.532587778000106, 12.07431331500004 ], [ 39.532528529000103, 12.073299273000146 ], [ 39.532697705000089, 12.072003085 ], [ 39.532662690000109, 12.071212920000107 ], [ 39.531319607000057, 12.069864725 ], [ 39.531430432000093, 12.068005228000061 ], [ 39.530913350000105, 12.067048401000022 ], [ 39.530681824000169, 12.065752977000159 ], [ 39.52985079400014, 12.065247481000085 ], [ 39.529447879000088, 12.064121408000062 ], [ 39.528873795000038, 12.062738229000104 ], [ 39.529213822000031, 12.061530120999976 ], [ 39.528008637000028, 12.059954831000027 ], [ 39.527717291000101, 12.059597790000055 ], [ 39.527090557000122, 12.058829729000024 ], [ 39.526687442000082, 12.057590965000031 ], [ 39.526133018, 12.056875784000113 ], [ 39.525597103000166, 12.056184472999973 ], [ 39.525423397, 12.055607246000136 ], [ 39.525020961000109, 12.05426992800011 ], [ 39.524044578000087, 12.052581503000113 ], [ 39.523197507000077, 12.051450178000039 ], [ 39.522404984000104, 12.050391692000062 ], [ 39.522064647000093, 12.049937139000178 ], [ 39.522749351000073, 12.048809014000028 ], [ 39.522748261000174, 12.048245594000093 ], [ 39.52241046000006, 12.047254382000176 ], [ 39.522172594000097, 12.046556409000061 ], [ 39.521987338000031, 12.046030838000036 ], [ 39.521597043000156, 12.044923564000044 ], [ 39.521194087000026, 12.043741132000093 ], [ 39.521306392000156, 12.042614080000078 ], [ 39.520932523000056, 12.041673547000187 ], [ 39.520784188000107, 12.040381768000145 ], [ 39.520966151000152, 12.039036561000103 ], [ 39.520725647000177, 12.038276818000043 ], [ 39.521061799000108, 12.036747209000055 ], [ 39.52130288900014, 12.035650161000092 ], [ 39.521393221000153, 12.035239114999968 ], [ 39.521605121000107, 12.034274880000055 ], [ 39.521478595000133, 12.03348757800012 ], [ 39.52138032300013, 12.032876078000129 ], [ 39.521315461000142, 12.032472472000109 ], [ 39.520741901000065, 12.031853778000084 ], [ 39.520738865, 12.030276202000152 ], [ 39.520736436000107, 12.028203021000081 ], [ 39.521176026000035, 12.027507184000171 ], [ 39.521133118000023, 12.026951276000034 ], [ 39.521015611000166, 12.025373913000124 ], [ 39.520668515000068, 12.02345892500017 ], [ 39.520551230000194, 12.021994245000087 ], [ 39.519517874000144, 12.020362243000079 ], [ 39.519044500000064, 12.019967977000135 ], [ 39.517632664000132, 12.018312343000105 ], [ 39.516559804000167, 12.017611108000096 ], [ 39.515342523000072, 12.01656056600001 ], [ 39.514562476000151, 12.015365650000092 ], [ 39.513246542000161, 12.013549614000112 ], [ 39.512810167000168, 12.012633534000031 ], [ 39.512563280000109, 12.012115244000086 ], [ 39.512560657000165, 12.010727480000014 ], [ 39.512898391000192, 12.009386945000074 ], [ 39.512708888000077, 12.008675611000172 ], [ 39.512433297000086, 12.007641123000042 ], [ 39.512352122000038, 12.006831061000128 ], [ 39.512284666000141, 12.006157917000053 ], [ 39.512958936000132, 12.005434528000137 ], [ 39.513982538000107, 12.004336347000162 ], [ 39.51393048400007, 12.002517986000043 ], [ 39.513710156000116, 12.001871283000128 ], [ 39.513666348000072, 12.000768043000107 ], [ 39.513641655000072, 12.00014620200011 ], [ 39.513122643000088, 11.998062485999981 ], [ 39.512831403000177, 11.997557400000119 ], [ 39.512376212000049, 11.996767978000037 ], [ 39.512316288000079, 11.995963081000127 ], [ 39.513358042000107, 11.99541269600013 ], [ 39.515058838000186, 11.995170303000066 ], [ 39.516321166000182, 11.994402312000034 ], [ 39.519006832000173, 11.992586431000177 ], [ 39.520392504000029, 11.991536443000143 ], [ 39.520721197000171, 11.991287374000024 ], [ 39.518110333000152, 11.987629960000106 ], [ 39.51768942800004, 11.986408638000171 ], [ 39.517251062000184, 11.985136638000085 ], [ 39.516998806000117, 11.984404664000067 ], [ 39.516797889000088, 11.983821657000078 ], [ 39.516441530000179, 11.982787592000022 ], [ 39.514898448000054, 11.983860938000021 ], [ 39.514373718000115, 11.982909432000156 ], [ 39.513749976000042, 11.981778374000044 ], [ 39.513229940000031, 11.97913123100011 ], [ 39.512539726999989, 11.977273192000098 ], [ 39.512650565000115, 11.975357344000031 ], [ 39.511758280000095, 11.972541848000162 ], [ 39.511066932000119, 11.970064038000146 ], [ 39.510926159000064, 11.967910344000074 ], [ 39.510831266000139, 11.966458545000137 ], [ 39.510816499000043, 11.965963548000161 ], [ 39.510777794000148, 11.964666087000182 ], [ 39.510770056000069, 11.96440671400012 ], [ 39.510755208000035, 11.963908986000149 ], [ 39.51074876000007, 11.963692842 ], [ 39.510742296000046, 11.963476103000119 ], [ 39.510735168000167, 11.96323715300008 ], [ 39.510727483000153, 11.962979565000069 ], [ 39.510708087000182, 11.962329347000093 ], [ 39.51070163900016, 11.962113202000069 ], [ 39.510678427000187, 11.961335081000072 ], [ 39.510648075000177, 11.960317540000176 ], [ 39.511239259000035, 11.959874248000062 ], [ 39.512305169000115, 11.959074985000143 ], [ 39.514618373000019, 11.956817054000055 ], [ 39.514617308000027, 11.956253631000095 ], [ 39.511580058999982, 11.953836447000128 ], [ 39.509016191000171, 11.951613165000026 ], [ 39.50814932600008, 11.950984685000037 ], [ 39.506244199000093, 11.950224054999978 ], [ 39.505393057000049, 11.949960003000172 ], [ 39.502212370000052, 11.948033213000087 ], [ 39.50123489300006, 11.946838017000175 ], [ 39.501517235000165, 11.944172486000127 ], [ 39.501549895000039, 11.943864148000046 ], [ 39.501744995000024, 11.942022219000137 ], [ 39.502270160000194, 11.938199039000153 ], [ 39.503435517000071, 11.93767055700016 ], [ 39.50464884600018, 11.936807003000069 ], [ 39.505667250000101, 11.935656669000139 ], [ 39.506055577000154, 11.935416698999973 ], [ 39.505881275000093, 11.933143928000163 ], [ 39.505878591000055, 11.933087200000045 ], [ 39.505878353000071, 11.933082179999985 ], [ 39.505878226000107, 11.933079504000148 ], [ 39.505729546000055, 11.929937955000185 ], [ 39.505727684000078, 11.928933014000052 ], [ 39.505774240000051, 11.927832279000029 ], [ 39.505917720000184, 11.926587805000111 ], [ 39.506013047000181, 11.925582692000148 ], [ 39.506253981000043, 11.924481606000029 ], [ 39.506105980000143, 11.923285511000074 ], [ 39.506515615000183, 11.921442378000052 ], [ 39.506852665, 11.919766865999975 ], [ 39.507190067000067, 11.918282771 ], [ 39.507284767000044, 11.916942674999973 ], [ 39.507591297000033, 11.915187919000118 ], [ 39.507669424000028, 11.914740677000054 ], [ 39.508297660000096, 11.912873220000165 ], [ 39.508925174000183, 11.910622928000123 ], [ 39.509482780000099, 11.909975886000097 ], [ 39.510307413000021, 11.90920872300012 ], [ 39.511326052000015, 11.908249788000091 ], [ 39.512490547000027, 11.907338439000057 ], [ 39.513217982000072, 11.906571445000054 ], [ 39.513848140000164, 11.905756771000142 ], [ 39.51398323300009, 11.905569779000132 ], [ 39.513583172000097, 11.905521270000122 ], [ 39.512222172000122, 11.905284473000108 ], [ 39.511249635000183, 11.904903402000116 ], [ 39.510890740000093, 11.904904053000109 ], [ 39.511629856000127, 11.904085765000048 ], [ 39.513456657, 11.901997762000065 ], [ 39.514712719000045, 11.900643247000176 ], [ 39.516140183000175, 11.899175727000056 ], [ 39.516382884000109, 11.898350509000181 ], [ 39.516737046000117, 11.897146295000027 ], [ 39.518333011000095, 11.894044516000122 ], [ 39.519761170000038, 11.892971377000094 ], [ 39.520674669000016, 11.892011867000122 ], [ 39.520500691000052, 11.890772648000166 ], [ 39.521357616000159, 11.89015129500018 ], [ 39.521356436000019, 11.889531528000134 ], [ 39.521811728000046, 11.888291145999972 ], [ 39.522020449000024, 11.886088894000011 ], [ 39.522036044000117, 11.885924335000027 ], [ 39.52208884900017, 11.883614183000191 ], [ 39.522888220000141, 11.882823906000056 ], [ 39.524421147000055, 11.882250284000065 ], [ 39.524328265000179, 11.882891562000168 ], [ 39.524761550000051, 11.882838337000123 ], [ 39.525635382000075, 11.882453876 ], [ 39.526062936000073, 11.88211166100001 ], [ 39.527349905000051, 11.882646586000135 ], [ 39.529639964000125, 11.883600127000079 ], [ 39.533642692000171, 11.882747455000072 ], [ 39.534787895000193, 11.883308717000148 ], [ 39.536674013000095, 11.882460000000151 ], [ 39.5394491240001, 11.882792771000084 ], [ 39.539791014000173, 11.882756665000102 ], [ 39.541622472000142, 11.882563242000174 ], [ 39.54471132000009, 11.882444619000069 ], [ 39.54539419300005, 11.880640338000035 ], [ 39.548137647000033, 11.879451835000054 ], [ 39.551052010000035, 11.877924919000179 ], [ 39.553623799999968, 11.876736700000038 ], [ 39.555221626000048, 11.874817920000055 ], [ 39.555468451000138, 11.874741116999985 ], [ 39.558137158000022, 11.873910698000145 ], [ 39.561255071000176, 11.87407355400012 ], [ 39.563198935000059, 11.873562606000121 ], [ 39.563255818000073, 11.873540404000039 ], [ 39.565085123000188, 11.872826390000114 ], [ 39.567655634000118, 11.871074626000109 ], [ 39.569770015000188, 11.870056210000087 ], [ 39.571026821000089, 11.869264881000049 ], [ 39.573026655000035, 11.868190331000164 ], [ 39.57622936000007, 11.867902113000071 ], [ 39.576846732000149, 11.867779184000142 ], [ 39.57737291799998, 11.867674411999985 ], [ 39.579318486000034, 11.8680084880001 ], [ 39.580692039999974, 11.868343725000045 ], [ 39.584160299000189, 11.871886148000158 ], [ 39.58605050500006, 11.873065425000107 ], [ 39.58708316700006, 11.874471838000034 ], [ 39.589375159000156, 11.876270020000106 ], [ 39.590555103000099, 11.876627045000077 ], [ 39.591779275000135, 11.876997446000075 ], [ 39.594239142, 11.877048626999965 ], [ 39.596297727999968, 11.876706240000146 ], [ 39.59830008900019, 11.876814692000096 ], [ 39.60087633500018, 11.877767043000063 ], [ 39.603278754000087, 11.877705582999965 ], [ 39.605167587000153, 11.878208624000138 ], [ 39.605249267000147, 11.87818796 ], [ 39.606739809000032, 11.877810858000089 ], [ 39.609939815000132, 11.876282736000121 ], [ 39.612567504000026, 11.874643137000078 ], [ 39.615937021000036, 11.872213111000121 ], [ 39.619078942000044, 11.870346964000134 ], [ 39.620250940000176, 11.870062686999972 ], [ 39.622653791000118, 11.870226432000095 ], [ 39.624829763000037, 11.871235787000046 ], [ 39.627405907000025, 11.872131554000191 ], [ 39.630209839000031, 11.872576053000103 ], [ 39.631183959000168, 11.873306324000055 ], [ 39.63267082599998, 11.873133975000087 ], [ 39.63318694600008, 11.873696237000047 ], [ 39.63376144199998, 11.874765444000161 ], [ 39.634732971000176, 11.874368872000048 ], [ 39.635476080000103, 11.874141836000092 ], [ 39.6371921490001, 11.874137974000121 ], [ 39.638567628000146, 11.875261705000071 ], [ 39.639575083000068, 11.875183082000092 ], [ 39.640798130000121, 11.875087633000078 ], [ 39.642430776000026, 11.876098078000098 ], [ 39.643633486000056, 11.876715100000183 ], [ 39.644610039000099, 11.878459467000027 ], [ 39.646957493000173, 11.879355569000097 ], [ 39.649020279000183, 11.880815722000023 ], [ 39.652401188000056, 11.883286966000185 ], [ 39.655610410000179, 11.885702222000191 ], [ 39.65680186700007, 11.886783642000125 ], [ 39.65715831000017, 11.887107163000167 ], [ 39.657160878000013, 11.888177646000031 ], [ 39.657733739000093, 11.888514361000091 ], [ 39.658707174000085, 11.888906482000095 ], [ 39.660213367999972, 11.88883396000017 ], [ 39.661166723000122, 11.888788052000052 ], [ 39.663743271000101, 11.88973981200013 ], [ 39.664972363, 11.889398871000083 ], [ 39.666575205000129, 11.889845823000087 ], [ 39.670235925000156, 11.889668133000157 ], [ 39.671667712000044, 11.890340828000149 ], [ 39.674072968000132, 11.891405580000139 ], [ 39.676423124000053, 11.893315564000034 ], [ 39.679460067000036, 11.895336554000096 ], [ 39.680833856000106, 11.895671290999985 ], [ 39.681243809000193, 11.895758575000116 ], [ 39.682079586000157, 11.895936521000124 ], [ 39.68266544100004, 11.896061256000053 ], [ 39.685008787000129, 11.895210460000158 ], [ 39.687211505000164, 11.895317787000067 ], [ 39.688186133000158, 11.896160530000088 ], [ 39.689158924000083, 11.896270839000067 ], [ 39.690647994000187, 11.896943291000071 ], [ 39.692765345000112, 11.897219807000056 ], [ 39.694826351000131, 11.897834492000015 ], [ 39.696201744000177, 11.89878889900001 ], [ 39.698094884000113, 11.900868840000101 ], [ 39.699866865000104, 11.900301039999988 ], [ 39.70192617400005, 11.900239582000097 ], [ 39.706360603000064, 11.900283796000167 ], [ 39.706445669000175, 11.900284643000134 ], [ 39.710135808000018, 11.900388060000125 ], [ 39.711508188000096, 11.900159240000164 ], [ 39.712991603000148, 11.898634292000111 ], [ 39.713011895000079, 11.898621598000148 ], [ 39.714076763000037, 11.897955457000023 ], [ 39.71585045400019, 11.898063645000093 ], [ 39.717967532000046, 11.89822728900009 ], [ 39.720256824000103, 11.89861584 ], [ 39.722671995000155, 11.899370192000106 ], [ 39.723119526000175, 11.899509970000111 ], [ 39.725978807000047, 11.899108242000068 ], [ 39.729643774000124, 11.900507305000133 ], [ 39.732194146000097, 11.902247257 ], [ 39.734141602000136, 11.903143645000114 ], [ 39.736088011000163, 11.903645638000171 ], [ 39.736411204000149, 11.903733849999981 ], [ 39.738950504000115, 11.904426921000038 ], [ 39.741072825000117, 11.906505951000099 ], [ 39.741476793000174, 11.907800720000068 ], [ 39.742566653000097, 11.908868321 ], [ 39.744399158000135, 11.909539574000064 ], [ 39.74576515200016, 11.910649073000116 ], [ 39.746749934000093, 11.911448931 ], [ 39.74812679900009, 11.912853790000156 ], [ 39.749330659, 11.913752038000041 ], [ 39.750167833000035, 11.913864276000083 ], [ 39.751390965000155, 11.914028255000062 ], [ 39.752591584000072, 11.913743350000061 ], [ 39.75261823600016, 11.913753550000024 ], [ 39.75536918500012, 11.91480638500019 ], [ 39.75805802400015, 11.914799163999987 ], [ 39.760004237000146, 11.91518830300015 ], [ 39.762237916000117, 11.916083714000081 ], [ 39.763557671000171, 11.917488645000049 ], [ 39.764706913000055, 11.919288414 ], [ 39.765941202000135, 11.920245247000025 ], [ 39.76608295800014, 11.920355138000161 ], [ 39.767973276000191, 11.921195093000108 ], [ 39.769575964000126, 11.921472419000168 ], [ 39.77163777200019, 11.922255539000105 ], [ 39.773245414000144, 11.924279372000171 ], [ 39.774964145000183, 11.92511974700011 ], [ 39.777513093000039, 11.926183180000123 ], [ 39.779400588000158, 11.926008942000067 ], [ 39.779634450000117, 11.92588248300018 ], [ 39.780657304000044, 11.925329381000097 ], [ 39.780979722000041, 11.924956838000071 ], [ 39.782025856000132, 11.923748065000154 ], [ 39.782197880000126, 11.923235032000093 ], [ 39.782422942000096, 11.922563822000143 ], [ 39.783377662000078, 11.921838789999981 ], [ 39.784135540000079, 11.921263241000077 ], [ 39.785046048000083, 11.919570507000174 ], [ 39.785901927999987, 11.91877936200018 ], [ 39.786749194000151, 11.918219687000146 ], [ 39.787272365000149, 11.917874098000084 ], [ 39.787895984000158, 11.915900458000181 ], [ 39.789038541000082, 11.915333861000136 ], [ 39.790355651000027, 11.915780890000065 ], [ 39.791328042000089, 11.915721821000034 ], [ 39.792243387000042, 11.91571924800013 ], [ 39.793558050000058, 11.915321170000027 ], [ 39.79458551700003, 11.914529517000176 ], [ 39.795899186000099, 11.913793393 ], [ 39.797502341000154, 11.914239578999968 ], [ 39.798542723000082, 11.913921098 ], [ 39.798950595000065, 11.913559328000076 ], [ 39.799642884999969, 11.912599660000126 ], [ 39.799673842000175, 11.911643200000185 ], [ 39.79985629000015, 11.911072815000182 ], [ 39.800010887000042, 11.910589501000118 ], [ 39.800278376000051, 11.910058826000181 ], [ 39.800880446000178, 11.908864363000021 ], [ 39.801267054000164, 11.908145485999967 ], [ 39.801021588000083, 11.907284849000064 ], [ 39.801723178000088, 11.906277966000175 ], [ 39.802135566000061, 11.905962582000029 ], [ 39.802519394000058, 11.905669041000181 ], [ 39.803098221000084, 11.905226366000022 ], [ 39.804486525000186, 11.904164612000102 ], [ 39.806186259000128, 11.903872648000117 ], [ 39.807252653000091, 11.903008265000096 ], [ 39.807896167000195, 11.902583087999972 ], [ 39.80841649700011, 11.902239301000066 ], [ 39.811577816000124, 11.903282963000095 ], [ 39.814297021000129, 11.902700905000074 ], [ 39.815368517000138, 11.90355914200012 ], [ 39.817870787000061, 11.903551897000114 ], [ 39.818892132000087, 11.903883895000092 ], [ 39.820882652000137, 11.903351740000176 ], [ 39.823168721000172, 11.904158556000141 ], [ 39.824625777000108, 11.903962894000131 ], [ 39.825741418000121, 11.903337558000089 ], [ 39.826267294000104, 11.902531914 ], [ 39.826299534000157, 11.90211388299997 ], [ 39.82680542900016, 11.901707484000042 ], [ 39.828990843000156, 11.901366109000094 ], [ 39.83095644600013, 11.900642552000022 ], [ 39.831827667000027, 11.899539398000059 ], [ 39.833040154000059, 11.898818047000134 ], [ 39.83345356000018, 11.898299135 ], [ 39.833766186000105, 11.897906723000062 ], [ 39.834345578000068, 11.896708720000163 ], [ 39.834927591, 11.896372037000106 ], [ 39.83628654600011, 11.895889499000134 ], [ 39.836623578000115, 11.894883616000129 ], [ 39.837400075000119, 11.894594204000157 ], [ 39.839003410000032, 11.894589443000029 ], [ 39.840263707000076, 11.893628663000129 ], [ 39.842301215000134, 11.892617709000149 ], [ 39.843246128000033, 11.89180141300011 ], [ 39.843331048000152, 11.891354959000125 ], [ 39.843437375000121, 11.890795960000105 ], [ 39.843970041000148, 11.890220150000061 ], [ 39.844064558000071, 11.889358541000092 ], [ 39.844209427000067, 11.889070998000022 ], [ 39.84463326000008, 11.888868449000086 ], [ 39.845069886000147, 11.888659786000119 ], [ 39.84551929800017, 11.888445010000112 ], [ 39.846258997000177, 11.888182321000158 ], [ 39.846878191000087, 11.887962423999966 ], [ 39.847798782000154, 11.887146186000109 ], [ 39.850129648000063, 11.886756369000125 ], [ 39.851584205000108, 11.885794958000076 ], [ 39.851923103000047, 11.885411124000086 ], [ 39.851870525000152, 11.884668614000134 ], [ 39.85310165900006, 11.884273361 ], [ 39.8549873770001, 11.883647929000119 ], [ 39.856073501000083, 11.883419282000148 ], [ 39.856877314000087, 11.884374610000123 ], [ 39.856285385000035, 11.88691743000004 ], [ 39.854972753000141, 11.889784997000049 ], [ 39.855096346000153, 11.889815031000069 ], [ 39.856583124000053, 11.888863994000133 ], [ 39.856487001, 11.889199235999968 ], [ 39.85702158700019, 11.889245464999988 ], [ 39.859327426000107, 11.888616406000097 ], [ 39.862337734000164, 11.887985179000168 ], [ 39.868818032000036, 11.886147017000155 ], [ 39.8719253000001, 11.885467544000164 ], [ 39.878521989000149, 11.884002313000167 ], [ 39.880480556000123, 11.890223524000021 ], [ 39.887100224000164, 11.905738230000111 ], [ 39.885812245000068, 11.91386422100004 ], [ 39.884193263000043, 11.92128321500013 ], [ 39.883365276000063, 11.926591209000037 ], [ 39.88061934000001, 11.948857183000086 ], [ 39.878741381000168, 11.963326167000162 ], [ 39.876546907000147, 11.974361157000146 ], [ 39.873593419000031, 11.982339154000044 ], [ 39.870449928000085, 11.989610654000046 ], [ 39.866738428000133, 11.995188157000143 ], [ 39.864833438000062, 12.001102155000069 ], [ 39.863301948000185, 12.006312152000135 ], [ 39.861397960000033, 12.012602648000097 ], [ 39.857928469000115, 12.020577647000152 ] ], [ [ 39.620268210000177, 12.147815855000147 ], [ 39.619510266000191, 12.148404567000171 ], [ 39.619841115000099, 12.150751888000116 ], [ 39.619844697000076, 12.152299465 ], [ 39.620029811999984, 12.15337715600009 ], [ 39.62128543200015, 12.153335729000162 ], [ 39.624934541000187, 12.155205956000088 ], [ 39.625891015000093, 12.156014939000102 ], [ 39.626847694000105, 12.156909304000123 ], [ 39.627763892000075, 12.159041822 ], [ 39.629373055000087, 12.160617764000051 ], [ 39.630851056000097, 12.161767076999979 ], [ 39.635303434000036, 12.163784743000122 ], [ 39.638995150000142, 12.16522775500016 ], [ 39.640428292000081, 12.165736739000181 ], [ 39.641991818000122, 12.166330797000114 ], [ 39.643030239000154, 12.165090320000047 ], [ 39.644413723000014, 12.162995200000069 ], [ 39.644970499000124, 12.159962783000083 ], [ 39.645355044000041, 12.157485762000078 ], [ 39.645352985000102, 12.156631931 ], [ 39.644961550000176, 12.15624861900011 ], [ 39.643747352000048, 12.156550290000098 ], [ 39.643918550000194, 12.155567979000068 ], [ 39.643218262000175, 12.153050792000101 ], [ 39.643286034000084, 12.15299774500005 ], [ 39.642956799000103, 12.152581789000124 ], [ 39.642453776000139, 12.150896630000034 ], [ 39.642619549000074, 12.147651666000115 ], [ 39.642524582000135, 12.144236537999973 ], [ 39.642694653000092, 12.1427846200001 ], [ 39.642561317000059, 12.141461480999965 ], [ 39.641995133000137, 12.140566265000189 ], [ 39.640627563000123, 12.140206552000166 ], [ 39.639498781000157, 12.139910318000148 ], [ 39.636848100000122, 12.138208750000047 ], [ 39.632852562000096, 12.136552923000124 ], [ 39.630078315000162, 12.137626548000014 ], [ 39.628733518, 12.137714988000084 ], [ 39.627780604000066, 12.138400222000087 ], [ 39.626007214000026, 12.14075229700012 ], [ 39.624016655000105, 12.143019466 ], [ 39.623151974000052, 12.144344866000097 ], [ 39.622905469000159, 12.143503237000175 ], [ 39.6218858740001, 12.143756482000072 ], [ 39.621291392000103, 12.144665023000186 ], [ 39.620428199000173, 12.14664146500013 ], [ 39.620268210000177, 12.147815855000147 ] ] ] } }
]
}
